sat40064
1 40064U 14036D   20046.90184469  .00000005  00000-0 -29922-4 0  9995
2 40064  82.5111 208.7343 0231020 135.8571 226.1228 12.81721813263029
